[{"OBJECT_NAME":"FENGYUN 1C DEB","OBJECT_ID":"1999-025CQL","EPOCH":"2026-03-11T22:06:53.348256","MEAN_MOTION":14.10867898,"ECCENTRICITY":0.0035428,"INCLINATION":98.7537,"RA_OF_ASC_NODE":63.9819,"ARG_OF_PERICENTER":17.3406,"MEAN_ANOMALY":342.8966,"EPHEMERIS_TYPE":0,"CLASSIFICATION_TYPE":"U","NORAD_CAT_ID":32094,"ELEMENT_SET_NO":999,"REV_AT_EPOCH":95622,"BSTAR":0.00043227,"MEAN_MOTION_DOT":7.36e-6,"MEAN_MOTION_DDOT":0},{"OBJECT_NAME":"FENGYUN 1C DEB","OBJECT_ID":"1999-025CQM","EPOCH":"2026-03-13T21:15:00.766656","MEAN_MOTION":14.16166023,"ECCENTRICITY":0.00779974,"INCLINATION":98.6376,"RA_OF_ASC_NODE":90.7831,"ARG_OF_PERICENTER":189.7722,"MEAN_ANOMALY":170.194,"EPHEMERIS_TYPE":0,"CLASSIFICATION_TYPE":"U","NORAD_CAT_ID":32095,"ELEMENT_SET_NO":999,"REV_AT_EPOCH":96107,"BSTAR":0.00027322067,"MEAN_MOTION_DOT":5.14e-6,"MEAN_MOTION_DDOT":0},{"OBJECT_NAME":"FENGYUN 1C DEB","OBJECT_ID":"1999-025CQN","EPOCH":"2026-03-13T12:39:08.172288","MEAN_MOTION":13.90462658,"ECCENTRICITY":0.01333929,"INCLINATION":99.0645,"RA_OF_ASC_NODE":104.3193,"ARG_OF_PERICENTER":253.055,"MEAN_ANOMALY":105.5951,"EPHEMERIS_TYPE":0,"CLASSIFICATION_TYPE":"U","NORAD_CAT_ID":32096,"ELEMENT_SET_NO":999,"REV_AT_EPOCH":94123,"BSTAR":0.00087920666,"MEAN_MOTION_DOT":1.13e-5,"MEAN_MOTION_DDOT":0},{"OBJECT_NAME":"FENGYUN 1C DEB","OBJECT_ID":"1999-025CQQ","EPOCH":"2026-03-09T04:58:08.840928","MEAN_MOTION":14.20475321,"ECCENTRICITY":0.01934671,"INCLINATION":98.6225,"RA_OF_ASC_NODE":63.4843,"ARG_OF_PERICENTER":229.7018,"MEAN_ANOMALY":128.7113,"EPHEMERIS_TYPE":0,"CLASSIFICATION_TYPE":"U","NORAD_CAT_ID":32098,"ELEMENT_SET_NO":999,"REV_AT_EPOCH":65455,"BSTAR":0.00031333194,"MEAN_MOTION_DOT":7.65e-6,"MEAN_MOTION_DDOT":0},{"OBJECT_NAME":"FENGYUN 1C DEB","OBJECT_ID":"1999-025CQT","EPOCH":"2026-03-11T12:22:01.495776","MEAN_MOTION":14.02221603,"ECCENTRICITY":0.01229414,"INCLINATION":99.0327,"RA_OF_ASC_NODE":333.7644,"ARG_OF_PERICENTER":352.0282,"MEAN_ANOMALY":7.8928,"EPHEMERIS_TYPE":0,"CLASSIFICATION_TYPE":"U","NORAD_CAT_ID":32101,"ELEMENT_SET_NO":999,"REV_AT_EPOCH":94426,"BSTAR":0.0021477997,"MEAN_MOTION_DOT":3.47e-5,"MEAN_MOTION_DDOT":0},{"OBJECT_NAME":"FENGYUN 1C DEB","OBJECT_ID":"1999-025CQX","EPOCH":"2026-03-11T06:04:40.283328","MEAN_MOTION":13.40725075,"ECCENTRICITY":0.03979163,"INCLINATION":103.4576,"RA_OF_ASC_NODE":95.7236,"ARG_OF_PERICENTER":250.9991,"MEAN_ANOMALY":104.7618,"EPHEMERIS_TYPE":0,"CLASSIFICATION_TYPE":"U","NORAD_CAT_ID":32105,"ELEMENT_SET_NO":999,"REV_AT_EPOCH":60897,"BSTAR":0.0020000983,"MEAN_MOTION_DOT":1.681e-5,"MEAN_MOTION_DDOT":0},{"OBJECT_NAME":"FENGYUN 1C DEB","OBJECT_ID":"1999-025CRB","EPOCH":"2026-03-13T21:57:53.581536","MEAN_MOTION":14.34261155,"ECCENTRICITY":0.02063056,"INCLINATION":98.3513,"RA_OF_ASC_NODE":314.5198,"ARG_OF_PERICENTER":40.5251,"MEAN_ANOMALY":321.109,"EPHEMERIS_TYPE":0,"CLASSIFICATION_TYPE":"U","NORAD_CAT_ID":32109,"ELEMENT_SET_NO":999,"REV_AT_EPOCH":66195,"BSTAR":0.00042262664,"MEAN_MOTION_DOT":1.459e-5,"MEAN_MOTION_DDOT":0},{"OBJECT_NAME":"FENGYUN 1C DEB","OBJECT_ID":"1999-025CRC","EPOCH":"2026-03-14T07:23:48.352992","MEAN_MOTION":14.29759868,"ECCENTRICITY":0.00337169,"INCLINATION":99.5505,"RA_OF_ASC_NODE":256.1822,"ARG_OF_PERICENTER":107.1217,"MEAN_ANOMALY":17.4731,"EPHEMERIS_TYPE":0,"CLASSIFICATION_TYPE":"U","NORAD_CAT_ID":32110,"ELEMENT_SET_NO":999,"REV_AT_EPOCH":65696,"BSTAR":0.0015973923,"MEAN_MOTION_DOT":4.077e-5,"MEAN_MOTION_DDOT":0},{"OBJECT_NAME":"FENGYUN 1C DEB","OBJECT_ID":"1999-025CRD","EPOCH":"2026-03-12T20:02:13.256160","MEAN_MOTION":14.31693796,"ECCENTRICITY":0.0118832,"INCLINATION":98.4484,"RA_OF_ASC_NODE":74.139,"ARG_OF_PERICENTER":299.0218,"MEAN_ANOMALY":181.7348,"EPHEMERIS_TYPE":0,"CLASSIFICATION_TYPE":"U","NORAD_CAT_ID":32111,"ELEMENT_SET_NO":999,"REV_AT_EPOCH":97320,"BSTAR":0.00030300062,"MEAN_MOTION_DOT":8.28e-6,"MEAN_MOTION_DDOT":0},{"OBJECT_NAME":"FENGYUN 1C DEB","OBJECT_ID":"1999-025CRF","EPOCH":"2026-03-13T22:12:26.199072","MEAN_MOTION":13.9481872,"ECCENTRICITY":0.02360016,"INCLINATION":99.0152,"RA_OF_ASC_NODE":110.7304,"ARG_OF_PERICENTER":337.1396,"MEAN_ANOMALY":21.9394,"EPHEMERIS_TYPE":0,"CLASSIFICATION_TYPE":"U","NORAD_CAT_ID":32113,"ELEMENT_SET_NO":999,"REV_AT_EPOCH":64157,"BSTAR":0.00068989588,"MEAN_MOTION_DOT":1.123e-5,"MEAN_MOTION_DDOT":0},{"OBJECT_NAME":"FENGYUN 1C DEB","OBJECT_ID":"1999-025CRG","EPOCH":"2026-03-08T14:27:34.009344","MEAN_MOTION":14.80251627,"ECCENTRICITY":0.00427995,"INCLINATION":99.9292,"RA_OF_ASC_NODE":209.4988,"ARG_OF_PERICENTER":85.3799,"MEAN_ANOMALY":275.2293,"EPHEMERIS_TYPE":0,"CLASSIFICATION_TYPE":"U","NORAD_CAT_ID":32114,"ELEMENT_SET_NO":999,"REV_AT_EPOCH":66998,"BSTAR":0.0032122759,"MEAN_MOTION_DOT":0.00024841,"MEAN_MOTION_DDOT":0},{"OBJECT_NAME":"FENGYUN 1C DEB","OBJECT_ID":"1999-025CRK","EPOCH":"2026-03-14T13:54:49.895424","MEAN_MOTION":14.24412711,"ECCENTRICITY":0.00284195,"INCLINATION":98.6018,"RA_OF_ASC_NODE":122.0324,"ARG_OF_PERICENTER":180.1569,"MEAN_ANOMALY":179.9606,"EPHEMERIS_TYPE":0,"CLASSIFICATION_TYPE":"U","NORAD_CAT_ID":32117,"ELEMENT_SET_NO":999,"REV_AT_EPOCH":96104,"BSTAR":0.0011218662,"MEAN_MOTION_DOT":2.565e-5,"MEAN_MOTION_DDOT":0},{"OBJECT_NAME":"FENGYUN 1C DEB","OBJECT_ID":"1999-025CRM","EPOCH":"2026-03-07T09:41:51.933984","MEAN_MOTION":14.03057365,"ECCENTRICITY":0.00838552,"INCLINATION":99.8829,"RA_OF_ASC_NODE":301.1294,"ARG_OF_PERICENTER":184.0262,"MEAN_ANOMALY":176.0236,"EPHEMERIS_TYPE":0,"CLASSIFICATION_TYPE":"U","NORAD_CAT_ID":32119,"ELEMENT_SET_NO":999,"REV_AT_EPOCH":94915,"BSTAR":0.00066649411,"MEAN_MOTION_DOT":1.017e-5,"MEAN_MOTION_DDOT":0},{"OBJECT_NAME":"FENGYUN 1C DEB","OBJECT_ID":"1999-025CRR","EPOCH":"2026-03-13T08:30:52.107264","MEAN_MOTION":14.61841424,"ECCENTRICITY":0.01597884,"INCLINATION":98.95,"RA_OF_ASC_NODE":252.5781,"ARG_OF_PERICENTER":15.9104,"MEAN_ANOMALY":100.4981,"EPHEMERIS_TYPE":0,"CLASSIFICATION_TYPE":"U","NORAD_CAT_ID":32123,"ELEMENT_SET_NO":999,"REV_AT_EPOCH":72698,"BSTAR":0.00018417798,"MEAN_MOTION_DOT":1.038e-5,"MEAN_MOTION_DDOT":0},{"OBJECT_NAME":"FENGYUN 1C DEB","OBJECT_ID":"1999-025CRT","EPOCH":"2026-03-08T05:25:55.615296","MEAN_MOTION":14.72591337,"ECCENTRICITY":0.01689255,"INCLINATION":99.0682,"RA_OF_ASC_NODE":62.2268,"ARG_OF_PERICENTER":58.082,"MEAN_ANOMALY":303.669,"EPHEMERIS_TYPE":0,"CLASSIFICATION_TYPE":"U","NORAD_CAT_ID":32125,"ELEMENT_SET_NO":999,"REV_AT_EPOCH":71780,"BSTAR":0.003714293,"MEAN_MOTION_DOT":0.00029682,"MEAN_MOTION_DDOT":0},{"OBJECT_NAME":"FENGYUN 1C DEB","OBJECT_ID":"1999-025CRU","EPOCH":"2026-03-13T22:12:56.094336","MEAN_MOTION":13.56984318,"ECCENTRICITY":0.02821631,"INCLINATION":99.1054,"RA_OF_ASC_NODE":307.3377,"ARG_OF_PERICENTER":21.5359,"MEAN_ANOMALY":339.738,"EPHEMERIS_TYPE":0,"CLASSIFICATION_TYPE":"U","NORAD_CAT_ID":32126,"ELEMENT_SET_NO":999,"REV_AT_EPOCH":62951,"BSTAR":0.001141591,"MEAN_MOTION_DOT":1.011e-5,"MEAN_MOTION_DDOT":0}]
