FENGYUN 1C DEB          
1 32094U 99025CQL 26070.92145079  .00000736  00000+0  43227-3 0  9991
2 32094  98.7537  63.9819 0035428  17.3406 342.8966 14.10867898956222
FENGYUN 1C DEB          
1 32095U 99025CQM 26072.88542554  .00000514  00000+0  27322-3 0  9990
2 32095  98.6376  90.7831 0077997 189.7722 170.1940 14.16166023961078
FENGYUN 1C DEB          
1 32096U 99025CQN 26072.52717792  .00001130  00000+0  87921-3 0  9996
2 32096  99.0645 104.3193 0133392 253.0550 105.5951 13.90462658941236
FENGYUN 1C DEB          
1 32098U 99025CQQ 26068.20704677  .00000765  00000+0  31333-3 0  9995
2 32098  98.6225  63.4843 0193467 229.7018 128.7113 14.20475321654550
FENGYUN 1C DEB          
1 32101U 99025CQT 26070.51529509  .00003470  00000+0  21478-2 0  9990
2 32101  99.0327 333.7644 0122941 352.0282   7.8928 14.02221603944260
FENGYUN 1C DEB          
1 32105U 99025CQX 26070.25324402  .00001681  00000+0  20001-2 0  9993
2 32105 103.4576  95.7236 0397916 250.9991 104.7618 13.40725075608972
FENGYUN 1C DEB          
1 32109U 99025CRB 26072.91520349  .00001459  00000+0  42263-3 0  9998
2 32109  98.3513 314.5198 0206305  40.5251 321.1090 14.34261155661955
FENGYUN 1C DEB          
1 32110U 99025CRC 26073.30819853  .00004077  00000+0  15974-2 0  9992
2 32110  99.5505 256.1822 0033716 107.1217  17.4731 14.29759868656961
FENGYUN 1C DEB          
1 32111U 99025CRD 26071.83487565  .00000828  00000+0  30300-3 0  9991
2 32111  98.4484  74.1390 0118832 299.0218 181.7348 14.31693796973207
FENGYUN 1C DEB          
1 32113U 99025CRF 26072.92530323  .00001123  00000+0  68990-3 0  9990
2 32113  99.0152 110.7304 0236001 337.1396  21.9394 13.94818720641572
FENGYUN 1C DEB          
1 32114U 99025CRG 26067.60247696  .00024841  00000+0  32123-2 0  9998
2 32114  99.9292 209.4988 0042799  85.3799 275.2293 14.80251627669989
FENGYUN 1C DEB          
1 32117U 99025CRK 26073.57974416  .00002565  00000+0  11219-2 0  9993
2 32117  98.6018 122.0324 0028419 180.1569 179.9606 14.24412711961041
FENGYUN 1C DEB          
1 32119U 99025CRM 26066.40407331  .00001017  00000+0  66649-3 0  9995
2 32119  99.8829 301.1294 0083855 184.0262 176.0236 14.03057365949152
FENGYUN 1C DEB          
1 32123U 99025CRR 26072.35476976  .00001038  00000+0  18418-3 0  9996
2 32123  98.9500 252.5781 0159788  15.9104 100.4981 14.61841424726982
FENGYUN 1C DEB          
1 32125U 99025CRT 26067.22633814  .00029682  00000+0  37143-2 0  9994
2 32125  99.0682  62.2268 0168925  58.0820 303.6690 14.72591337717801
FENGYUN 1C DEB          
1 32126U 99025CRU 26072.92564924  .00001011  00000+0  11416-2 0  9994
2 32126  99.1054 307.3377 0282163  21.5359 339.7380 13.56984318629515
